"spkid","full_name","pdes","name","prefix","neo","pha","sats","H","G","M1","M2","K1","K2","PC","diameter","extent","albedo","rot_per","GM","BV","UB","IR","spec_B","spec_T","H_sigma","diameter_sigma","orbit_id","epoch","epoch_mjd","epoch_cal","equinox","e","a","q","i","om","w","ma","ad","n","tp","tp_cal","per","per_y","moid","moid_ld","moid_jup","t_jup","sigma_e","sigma_a","sigma_q","sigma_i","sigma_om","sigma_w","sigma_ma","sigma_ad","sigma_n","sigma_tp","sigma_per","class","producer","data_arc","first_obs","last_obs","n_obs_used","n_del_obs_used","n_dop_obs_used","condition_code","rms","two_body","A1","A1_sigma","A2","A2_sigma","A3","A3_sigma","DT","DT_sigma"
1000273,"     C/1999 S4 (LINEAR)","1999 S4",LINEAR,C,,,0,,,9.6,,6.5,,,,,,,,,,,,,,,"JPL 100",2451587.5,51587,2000-02-13.0,J2000,1.0001,-7065,0.765,149.38,83.18,151.05,-0.00,,1.66e-06,2451751.66,2000-07-26.1,,,0.174,67.6,0.802,,1.6e-06,1.0e+02,1.3e-06,2.5e-05,3.2e-05,9.4e-05,5.9e-06,,3.6e-08,2.2e-04,,HYP,"Otto Matic",300,1999-09-27,2000-07-23,1230,,,,.72106,,9.1e-08,2.0e-09,-1.7e-08,9.5e-10,,,,
1001478,"     C/1999 S5 (SOHO)","1999 S5",SOHO,C,,,0,,,,,,,,,,,,,,,,,,,,SAO_2008,2451442.9,51442,1999-09-21.3,J2000,1.0000,,0.005,144.40,1.79,80.68,,,,2451442.89,1999-09-21.3,,,,,,,,,,,,,,,,,,PAR,,1,1999-09-20,1999-09-21,14,,,,,T,,,,,,,,
1001479,"     C/1999 S6 (SOHO)","1999 S6",SOHO,C,,,0,,,,,,,,,,,,,,,,,,,,SAO_2008,2451443.3,51443,1999-09-21.8,J2000,1.0000,,0.006,143.85,8.51,89.64,,,,2451443.32,1999-09-21.8,,,,,,,,,,,,,,,,,,PAR,,0,1999-09-21,1999-09-21,15,,,,,T,,,,,,,,
1001480,"     C/1999 S7 (SOHO)","1999 S7",SOHO,C,,,0,,,,,,,,,,,,,,,,,,,,SAO_2008,2451446.5,51446,1999-09-24.9,J2000,1.0000,,0.005,143.99,3.20,82.08,,,,2451446.45,1999-09-24.9,,,,,,,,,,,,,,,,,,PAR,,0,1999-09-24,1999-09-24,17,,,,,T,,,,,,,,
1000276,"     C/1999 T2 (LINEAR)","1999 T2",LINEAR,C,,,0,,,8.4,10.7,8.,5.,0.03,,,,,,,,,,,,,"JPL 28",2451827.5,51827,2000-10-10.0,J2000,1.0020,-1510,3.037,111.00,14.88,104.67,-0.00,,1.68e-05,2451872.97,2000-11-24.4,,,2.59,1.01e+03,0.557,,2.2e-06,1.7e+00,8.3e-07,1.2e-05,1.3e-05,3.0e-05,1.3e-06,,2.8e-08,1.5e-04,,HYP,"Otto Matic",1029,1999-07-22,2002-05-16,1021,,,,.71521,,,,,,,,,
1000278,"     C/1999 T3 (LINEAR)","1999 T3",LINEAR,C,,,0,,,10.8,,4.5,,,,,,,,,,,,,,,"JPL 53",2451583.5,51583,2000-02-09.0,J2000,1.0031,-1756,5.368,104.76,223.52,211.10,-0.00,,1.339e-05,2451786.87,2000-08-30.3,,,4.49,1.75e+03,0.747,,1.7e-05,1.0e+01,1.3e-05,6.2e-05,1.9e-05,2.7e-04,2.3e-05,,1.1e-07,2.6e-03,,HYP,"Otto Matic",868,1999-10-03,2002-02-17,227,,,,.72614,,,,,,,,,
1000277,"     C/1999 U1 (Ferris)","1999 U1",Ferris,C,,,0,,,10.8,12.1,4.5,5.,0.03,,,,,,,,,,,,,"JPL 29",2451496.5,51496,1999-11-14.0,J2000,1.0034,-1215,4.139,105.75,58.26,291.12,0.01,,2.327e-05,2451059.80,1998-09-03.2,,,3.66,1.42e+03,0.814,,4.2e-05,1.5e+01,6.9e-05,5.5e-04,9.2e-05,1.7e-03,1.9e-04,,4.3e-07,9.3e-03,,HYP,"Otto Matic",402,1998-12-22,2000-01-28,208,,,,.59536,,,,,,,,,
1001481,"     C/1999 U2 (SOHO)","1999 U2",SOHO,C,,,0,,,,,,,,,,,,,,,,,,,,"JPL 6",2451476.5,51476,1999-10-25.0,J2000,1.0167,-2.936,0.049,26.81,82.14,21.78,-0.04,,0.1959,2451476.73,1999-10-25.2,,,0.0448,17.4,0.299,,3.2e-01,5.7e+01,8.0e-04,2.4e+00,1.7e+00,2.2e+00,1.3e+00,,5.7e+00,2.9e-02,,HYP,"Otto Matic",1,1999-10-24,1999-10-25,41,,,,.088796,,,,,,,,,
1000282,"     C/1999 U4 (Catalina-Skiff)","1999 U4",Catalina-Skiff,C,,,0,,,10.3,,4.5,,,,,,,,,,,,,,,"JPL 64",2452275.5,52275,2002-01-01.0,J2000,1.0076,-649.4,4.915,51.93,32.29,77.52,0.00,,5.956e-05,2452211.03,2001-10-28.5,,,4.34,1.69e+03,2.16,,3.8e-06,3.3e-01,2.1e-06,1.3e-05,1.8e-05,3.8e-05,2.9e-06,,4.5e-08,3.7e-04,,HYP,"Otto Matic",1667,1999-09-18,2004-04-11,847,,,,.84401,,,,,,,,,
1001482,"     C/1999 U5 (SOHO)","1999 U5",SOHO,C,,,0,,,,,,,,,,,,,,,,,,,,SAO_2008,2451483.9,51483,1999-11-01.4,J2000,1.0000,,0.007,132.50,331.61,54.48,,,,2451483.90,1999-11-01.4,,,,,,,,,,,,,,,,,,PAR,,1,1999-10-31,1999-11-01,25,,,,,T,,,,,,,,
1001483,"     C/1999 U6 (SOHO)","1999 U6",SOHO,C,,,0,,,,,,,,,,,,,,,,,,,,SAO_2008,2451469.8,51469,1999-10-18.2,J2000,1.0000,,0.005,144.17,2.23,81.51,,,,2451469.77,1999-10-18.2,,,,,,,,,,,,,,,,,,PAR,,0,1999-10-17,1999-10-17,5,,,,,T,,,,,,,,
1001484,"     C/1999 U7 (SOHO)","1999 U7",SOHO,C,,,0,,,,,,,,,,,,,,,,,,,,SAO_2008,2451479.0,51478,1999-10-27.4,J2000,1.0000,,0.005,145.54,3.57,84.10,,,,2451478.99,1999-10-27.4,,,,,,,,,,,,,,,,,,PAR,,0,1999-10-27,1999-10-27,9,,,,,T,,,,,,,,
1001485,"     C/1999 U8 (SOHO)","1999 U8",SOHO,C,,,0,,,,,,,,,,,,,,,,,,,,SAO_2008,2451481.2,51481,1999-10-29.6,J2000,1.0000,,0.005,143.96,5.31,83.10,,,,2451481.18,1999-10-29.6,,,,,,,,,,,,,,,,,,PAR,,0,1999-10-29,1999-10-29,5,,,,,T,,,,,,,,
1001486,"     C/1999 U9 (SOHO)","1999 U9",SOHO,C,,,0,,,,,,,,,,,,,,,,,,,,SAO_2008,2451482.1,51482,1999-10-30.6,J2000,1.0000,,0.005,142.86,4.02,82.09,,,,2451482.11,1999-10-30.6,,,,,,,,,,,,,,,,,,PAR,,0,1999-10-30,1999-10-30,7,,,,,T,,,,,,,,
1001487,"     C/1999 V2 (SOHO)","1999 V2",SOHO,C,,,0,,,,,,,,,,,,,,,,,,,,SAO_2008,2451491.0,51490,1999-11-08.5,J2000,1.0000,,0.005,144.56,6.55,85.09,,,,2451491.00,1999-11-08.5,,,,,,,,,,,,,,,,,,PAR,,1,1999-11-07,1999-11-08,24,,,,,T,,,,,,,,
1001488,"     C/1999 V3 (SOHO)","1999 V3",SOHO,C,,,0,,,,,,,,,,,,,,,,,,,,SAO_2008,2451497.6,51497,1999-11-15.1,J2000,1.0000,,0.006,146.24,357.22,78.36,,,,2451497.63,1999-11-15.1,,,,,,,,,,,,,,,,,,PAR,,0,1999-11-14,1999-11-14,7,,,,,T,,,,,,,,
1001489,"     C/1999 V4 (SOHO)","1999 V4",SOHO,C,,,0,,,,,,,,,,,,,,,,,,,,SAO_2008,2451498.4,51498,1999-11-15.9,J2000,1.0000,,0.005,142.57,10.38,89.69,,,,2451498.42,1999-11-15.9,,,,,,,,,,,,,,,,,,PAR,,0,1999-11-15,1999-11-15,5,,,,,T,,,,,,,,
1002528,"     C/1999 V5 (SOHO)","1999 V5",SOHO,C,,,0,,,,,,,,,,,,,,,,,,,,SAO_2008,2451497.2,51497,1999-11-14.6,J2000,1.0000,,0.005,141.25,358.13,73.77,,,,2451497.19,1999-11-14.6,,,,,,,,,,,,,,,,,,PAR,,0,1999-11-14,1999-11-14,6,,,,,T,,,,,,,,
1001490,"     C/1999 W1 (SOHO)","1999 W1",SOHO,C,,,0,,,,,,,,,,,,,,,,,,,,SAO_2008,2451506.1,51506,1999-11-23.6,J2000,1.0000,,0.009,136.57,9.34,87.47,,,,2451506.14,1999-11-23.6,,,,,,,,,,,,,,,,,,PAR,,0,1999-11-23,1999-11-23,5,,,,,T,,,,,,,,
1001728,"     C/1999 W2 (SOHO)","1999 W2",SOHO,C,,,0,,,,,,,,,,,,,,,,,,,,SAO_2008,2451509.3,51509,1999-11-26.8,J2000,1.0000,,0.005,141.45,13.36,89.65,,,,2451509.33,1999-11-26.8,,,,,,,,,,,,,,,,,,PAR,,0,1999-11-26,1999-11-26,5,,,,,T,,,,,,,,
1001491,"     C/1999 X2 (SOHO)","1999 X2",SOHO,C,,,0,,,,,,,,,,,,,,,,,,,,SAO_2008,2451516.7,51516,1999-12-04.2,J2000,1.0000,,0.006,148.35,346.83,69.11,,,,2451516.73,1999-12-04.2,,,,,,,,,,,,,,,,,,PAR,,0,1999-12-03,1999-12-03,5,,,,,T,,,,,,,,
1000286,"     C/1999 Y1 (LINEAR)","1999 Y1",LINEAR,C,,,0,,,7.3,,8.5,,,,,,,,,,,,,,,"JPL 67",2451804.5,51804,2000-09-17.0,J2000,1.0009,-3605,3.091,134.80,188.88,184.26,-0.00,,4.553e-06,2451992.55,2001-03-24.0,,,2.09,814,1.86,,3.1e-06,1.3e+01,1.1e-06,1.7e-05,2.2e-05,4.3e-05,4.7e-06,,2.5e-08,2.1e-04,,HYP,"Otto Matic",1283,1999-10-29,2003-05-04,833,,,,.74245,,,,,,,,,
1001492,"     C/1999 Y2 (SOHO)","1999 Y2",SOHO,C,,,0,,,,,,,,,,,,,,,,,,,,SAO_2008,2451541.2,51541,1999-12-28.7,J2000,1.0000,,0.048,111.42,235.50,342.21,,,,2451541.21,1999-12-28.7,,,,,,,,,,,,,,,,,,PAR,,0,1999-12-28,1999-12-28,23,,,,,T,,,,,,,,
1001493,"     C/1999 Y3 (SOHO)","1999 Y3",SOHO,C,,,0,,,,,,,,,,,,,,,,,,,,SAO_2008,2451534.4,51534,1999-12-21.8,J2000,1.0000,,0.006,144.43,6.49,85.05,,,,2451534.38,1999-12-21.8,,,,,,,,,,,,,,,,,,PAR,,0,1999-12-21,1999-12-21,14,,,,,T,,,,,,,,
1000288,"     C/2000 A1 (Montani)","2000 A1",Montani,C,,,0,,,4.4,10.1,10.,5.,0.03,,,,,,,,,,,,,"JPL 60",2451742.5,51742,2000-07-17.0,J2000,1.0040,-2464,9.743,24.54,111.84,14.27,0.00,,8.057e-06,2451738.71,2000-07-13.2,,,8.77,3.41e+03,4.51,,5.1e-05,3.2e+01,8.0e-05,1.3e-04,9.5e-05,1.4e-03,6.4e-07,,1.6e-07,3.1e-02,,HYP,"Otto Matic",806,2000-01-04,2002-03-20,132,,,,.54449,,,,,,,,,
1001494,"     C/2000 A2 (SOHO)","2000 A2",SOHO,C,,,0,,,,,,,,,,,,,,,,,,,,SAO_2008,2451558.7,51558,2000-01-15.2,J2000,1.0000,,0.006,145.65,2.55,80.15,,,,2451558.71,2000-01-15.2,,,,,,,,,,,,,,,,,,PAR,,0,2000-01-14,2000-01-14,13,,,,,T,,,,,,,,
1001495,"     C/2000 B1 (SOHO)","2000 B1",SOHO,C,,,0,,,,,,,,,,,,,,,,,,,,SAO_2008,2451569.3,51569,2000-01-25.8,J2000,1.0000,,0.005,144.52,7.65,86.21,,,,2451569.33,2000-01-25.8,,,,,,,,,,,,,,,,,,PAR,,1,2000-01-24,2000-01-25,64,,,,,T,,,,,,,,
1001496,"     C/2000 B5 (SOHO)","2000 B5",SOHO,C,,,0,,,,,,,,,,,,,,,,,,,,SAO_2008,2451562.4,51562,2000-01-18.8,J2000,1.0000,,0.005,144.21,2.86,82.17,,,,2451562.37,2000-01-18.8,,,,,,,,,,,,,,,,,,PAR,,1,2000-01-17,2000-01-18,29,,,,,T,,,,,,,,
1001497,"     C/2000 B6 (SOHO)","2000 B6",SOHO,C,,,0,,,,,,,,,,,,,,,,,,,,SAO_2008,2451573.7,51573,2000-01-30.2,J2000,1.0000,,0.005,140.89,359.24,84.28,,,,2451573.71,2000-01-30.2,,,,,,,,,,,,,,,,,,PAR,,0,2000-01-29,2000-01-29,21,,,,,T,,,,,,,,
1001498,"     C/2000 B7 (SOHO)","2000 B7",SOHO,C,,,0,,,,,,,,,,,,,,,,,,,,SAO_2008,2451576.0,51575,2000-02-01.4,J2000,1.0000,,0.005,144.63,0.45,79.36,,,,2451575.99,2000-02-01.4,,,,,,,,,,,,,,,,,,PAR,,1,2000-01-31,2000-02-01,14,,,,,T,,,,,,,,
1001729,"     C/2000 B8 (SOHO)","2000 B8",SOHO,C,,,0,,,,,,,,,,,,,,,,,,,,SAO_2008,2451560.4,51560,2000-01-16.8,J2000,1.0000,,0.034,70.75,75.09,54.63,,,,2451560.36,2000-01-16.8,,,,,,,,,,,,,,,,,,PAR,,0,2000-01-16,2000-01-16,12,,,,,T,,,,,,,,
1001499,"     C/2000 C2 (SOHO)","2000 C2",SOHO,C,,,0,,,,,,,,,,,,,,,,,,,,SAO_2008,2451578.4,51578,2000-02-03.8,J2000,1.0000,,0.037,71.35,73.71,55.44,,,,2451578.36,2000-02-03.8,,,,,,,,,,,,,,,,,,PAR,,0,2000-02-03,2000-02-03,10,,,,,T,,,,,,,,
1001500,"     C/2000 C3 (SOHO)","2000 C3",SOHO,C,,,0,,,,,,,,,,,,,,,,,,,,SAO_2008,2451579.1,51579,2000-02-04.5,J2000,1.0000,,0.049,24.97,81.85,23.47,,,,2451579.09,2000-02-04.5,,,,,,,,,,,,,,,,,,PAR,,1,2000-02-04,2000-02-05,35,,,,,T,,,,,,,,
1001501,"     C/2000 C4 (SOHO)","2000 C4",SOHO,C,,,0,,,,,,,,,,,,,,,,,,,,SAO_2008,2451579.7,51579,2000-02-05.1,J2000,1.0000,,0.049,24.97,81.95,23.05,,,,2451579.67,2000-02-05.1,,,,,,,,,,,,,,,,,,PAR,,0,2000-02-05,2000-02-05,54,,,,,T,,,,,,,,
